ONEWEB-0128             
1 47274U 20100S   24119.81082993  .00000012  00000+0 -33643-5 0  9991
2 47274  87.8953 145.8333 0002080 102.9700 257.1661 13.12448018162517
ONEWEB-0129             
1 47275U 20100T   24119.79019112 -.00000419  00000+0 -12006-2 0  9991
2 47275  87.8947 145.8077 0003704  90.3441 269.8112 13.12441929162449
ONEWEB-0130             
1 47276U 20100U   24120.12372833  .00000233  00000+0  61189-3 0  9992
2 47276  87.8944 145.7501 0002168  97.4802 262.6573 13.12442984162455
ONEWEB-0131             
1 47277U 20100V   24120.12055733  .00000207  00000+0  53888-3 0  9998
2 47277  87.8947 145.7641 0002007  97.6489 262.4868 13.12443921162490
ONEWEB-0132             
1 47278U 20100W   24119.76796196  .00000145  00000+0  36676-3 0  9999
2 47278  87.8947 145.8362 0001819  94.6438 265.4898 13.12442626162344
ONEWEB-0133             
1 47279U 20100X   24119.78383510 -.00000330  00000+0 -95336-3 0  9990
2 47279  87.8941 145.8342 0001979  97.4494 262.6860 13.12442911162500
ONEWEB-0134             
1 47280U 20100Y   24120.13484898  .00000531  00000+0  14395-2 0  9990
2 47280  87.8939 145.7531 0002192 100.8057 259.3318 13.12442368162529
ONEWEB-0135             
1 47281U 20100Z   24120.10307512 -.00000257  00000+0 -74914-3 0  9996
2 47281  87.8945 145.7718 0002085  96.2108 263.9258 13.12445576162540
